{
  "last_updated": "2026-01-16T06:00:02.063347",
  "satellites": {
    "98592": {
      "name": "DUTHSat-2",
      "norad_id": "98592",
      "tle": "1 64530U 25135C   26015.95507073  .00008303  00000-0  36170-3 0  9998\n2 64530  97.4487 132.5619 0005149  13.7694 346.3682 15.22446199 31734",
      "epoch": "2026-01-15T22:55:18.111072",
      "fetched_at": "2026-01-16T06:00:02.194065",
      "source": "satnogs"
    },
    "98530": {
      "name": "LAMARR",
      "norad_id": "98530",
      "tle": "1 66673U 25276H   26015.70490181  .00010386  00000-0  51315-3 0  9990\n2 66673  97.4331  91.8263 0006924 178.1944 181.9316 15.18023416  7277",
      "epoch": "2026-01-15T16:55:03.516384",
      "fetched_at": "2026-01-16T06:00:02.251113",
      "source": "satnogs"
    },
    "98529": {
      "name": "DIRAC",
      "norad_id": "98529",
      "tle": "1 66681U 25276R   26015.76111827  .00009647  00000-0  47175-3 0  9999\n2 66681  97.4308  91.8876 0005867 182.9723 177.1478 15.18407418  7288",
      "epoch": "2026-01-15T18:16:00.618528",
      "fetched_at": "2026-01-16T06:00:02.313373",
      "source": "satnogs"
    },
    "98518": {
      "name": "MICE-1",
      "norad_id": "98518",
      "tle": "1 66684U 25276U   26015.76767866  .00002506  00000-0  12769-3 0  9990\n2 66684  97.4449  91.9641 0006385 152.5691 207.5881 15.17682596  7288",
      "epoch": "2026-01-15T18:25:27.436224",
      "fetched_at": "2026-01-16T06:00:02.365365",
      "source": "satnogs"
    }
  },
  "fetch_log": [
    {
      "norad_id": "98592",
      "name": "DUTHSat-2",
      "status": "success",
      "source": "satnogs",
      "timestamp": "2026-01-16T06:00:02.194069"
    },
    {
      "norad_id": "98530",
      "name": "LAMARR",
      "status": "success",
      "source": "satnogs",
      "timestamp": "2026-01-16T06:00:02.251117"
    },
    {
      "norad_id": "98529",
      "name": "DIRAC",
      "status": "success",
      "source": "satnogs",
      "timestamp": "2026-01-16T06:00:02.313376"
    },
    {
      "norad_id": "98518",
      "name": "MICE-1",
      "status": "success",
      "source": "satnogs",
      "timestamp": "2026-01-16T06:00:02.365368"
    }
  ]
}